ONEWEB-0311             
1 49097U 21075Y   25331.18149166  .00000091  00000+0  20117-3 0  9997
2 49097  87.9131  46.0219 0001513 111.2922 248.8372 13.17650503207026
ONEWEB-0312             
1 49098U 21075Z   25331.19669118  .00000007  00000+0 -15378-4 0  9995
2 49098  87.9122  46.0461 0001425  98.2044 261.9250 13.17648018207004
ONEWEB-0313             
1 49099U 21075AA  25331.20163394  .00000065  00000+0  13347-3 0  9999
2 49099  87.9123  46.0534 0001671 102.3502 257.7816 13.17650938206998
ONEWEB-0314             
1 49100U 21075AB  25331.16800080  .00000064  00000+0  13227-3 0  9993
2 49100  87.9136  46.0101 0001362  99.4817 260.6468 13.17647854206963
ONEWEB-0315             
1 49101U 21075AC  25331.10467823  .00000042  00000+0  80073-4 0  9992
2 49101  87.8957  30.7864 0001581 111.5846 248.5451 13.12442253208668
ONEWEB-0316             
1 49102U 21075AD  25331.09974551  .00000025  00000+0  31708-4 0  9994
2 49102  87.9196  15.6062 0001762  99.3708 260.7623 13.18684065210573
ONEWEB-0317             
1 49103U 21075AE  25331.17442441  .00000249  00000+0  65815-3 0  9995
2 49103  87.8959  30.7897 0002242  81.7896 278.3487 13.12442702208698
ONEWEB-0318             
1 49104U 21075AF  25331.09644331 -.00000016  00000+0 -72254-4 0  9999
2 49104  87.9200  15.5943 0001598 104.1408 255.9902 13.18684664210534
